[
  {
    "OBJECT_NAME": "STARLINK-2432",
    "OBJECT_ID": "21018BF",
    "EPOCH": "2025-11-11T05:56:33.874656",
    "MEAN_MOTION": 15.0640611,
    "ECCENTRICITY": 0.0001905,
    "INCLINATION": 53.0508,
    "RA_OF_ASC_NODE": 43.3254,
    "ARG_OF_PERICENTER": 79.9705,
    "MEAN_ANOMALY": 280.1499,
    "EPHEMERIS_TYPE": 0,
    "CLASSIFICATION_TYPE": "U",
    "NORAD_CAT_ID": 47840,
    "ELEMENT_SET_NO": 999,
    "REV_AT_EPOCH": 25902,
    "BSTAR": 7.1072e-05,
    "MEAN_MOTION_DOT": 7.77e-06,
    "MEAN_MOTION_DDOT": 0.0,
    "TLE_LINE1": "1 47840U 21018BF  25315.24761429  .00000777  00000+0  71072-4 0  9997",
    "TLE_LINE2": "2 47840  53.0508  43.3254 0001905  79.9705 280.1499 15.06406110259024",
    "COMMENT": "Grouped by shell and plane from TLE"
  },
  {
    "OBJECT_NAME": "STARLINK-2433",
    "OBJECT_ID": "21018BG",
    "EPOCH": "2025-11-11T05:51:16.734816",
    "MEAN_MOTION": 15.06391539,
    "ECCENTRICITY": 7.04e-05,
    "INCLINATION": 53.0572,
    "RA_OF_ASC_NODE": 43.3432,
    "ARG_OF_PERICENTER": 102.5446,
    "MEAN_ANOMALY": 257.5622,
    "EPHEMERIS_TYPE": 0,
    "CLASSIFICATION_TYPE": "U",
    "NORAD_CAT_ID": 47841,
    "ELEMENT_SET_NO": 999,
    "REV_AT_EPOCH": 25902,
    "BSTAR": 0.00090507,
    "MEAN_MOTION_DOT": 0.00013222,
    "MEAN_MOTION_DDOT": 0.0,
    "TLE_LINE1": "1 47841U 21018BG  25315.24394369  .00013222  00000+0  90507-3 0  9995",
    "TLE_LINE2": "2 47841  53.0572  43.3432 0000704 102.5446 257.5622 15.06391539259029",
    "COMMENT": "Grouped by shell and plane from TLE"
  },
  {
    "OBJECT_NAME": "STARLINK-3151",
    "OBJECT_ID": "21104A",
    "EPOCH": "2025-11-11T06:36:55.146528",
    "MEAN_MOTION": 15.08836761,
    "ECCENTRICITY": 0.0001238,
    "INCLINATION": 53.2183,
    "RA_OF_ASC_NODE": 40.7312,
    "ARG_OF_PERICENTER": 83.0224,
    "MEAN_ANOMALY": 277.0909,
    "EPHEMERIS_TYPE": 0,
    "CLASSIFICATION_TYPE": "U",
    "NORAD_CAT_ID": 49408,
    "ELEMENT_SET_NO": 999,
    "REV_AT_EPOCH": 22075,
    "BSTAR": 3.3721000000000005e-05,
    "MEAN_MOTION_DOT": 2.49e-06,
    "MEAN_MOTION_DDOT": 0.0,
    "TLE_LINE1": "1 49408U 21104A   25315.27563827  .00000249  00000+0  33721-4 0  9993",
    "TLE_LINE2": "2 49408  53.2183  40.7312 0001238  83.0224 277.0909 15.08836761220754",
    "COMMENT": "Grouped by shell and plane from TLE"
  },
  {
    "OBJECT_NAME": "STARLINK-3075",
    "OBJECT_ID": "21104B",
    "EPOCH": "2025-11-11T05:21:20.622240",
    "MEAN_MOTION": 15.08844712,
    "ECCENTRICITY": 0.0002549,
    "INCLINATION": 53.2153,
    "RA_OF_ASC_NODE": 40.9334,
    "ARG_OF_PERICENTER": 105.9961,
    "MEAN_ANOMALY": 254.1313,
    "EPHEMERIS_TYPE": 0,
    "CLASSIFICATION_TYPE": "U",
    "NORAD_CAT_ID": 49409,
    "ELEMENT_SET_NO": 999,
    "REV_AT_EPOCH": 22075,
    "BSTAR": 0.00015822,
    "MEAN_MOTION_DOT": 2.231e-05,
    "MEAN_MOTION_DDOT": 0.0,
    "TLE_LINE1": "1 49409U 21104B   25315.22315535  .00002231  00000+0  15822-3 0  9994",
    "TLE_LINE2": "2 49409  53.2153  40.9334 0002549 105.9961 254.1313 15.08844712220756",
    "COMMENT": "Grouped by shell and plane from TLE"
  },
  {
    "OBJECT_NAME": "STARLINK-3147",
    "OBJECT_ID": "21104C",
    "EPOCH": "2025-11-11T06:47:30.645312",
    "MEAN_MOTION": 15.08834243,
    "ECCENTRICITY": 0.0001178,
    "INCLINATION": 53.2182,
    "RA_OF_ASC_NODE": 40.6779,
    "ARG_OF_PERICENTER": 92.6242,
    "MEAN_ANOMALY": 267.4885,
    "EPHEMERIS_TYPE": 0,
    "CLASSIFICATION_TYPE": "U",
    "NORAD_CAT_ID": 49410,
    "ELEMENT_SET_NO": 999,
    "REV_AT_EPOCH": 22075,
    "BSTAR": 0.00028804000000000004,
    "MEAN_MOTION_DOT": 4.299e-05,
    "MEAN_MOTION_DDOT": 0.0,
    "TLE_LINE1": "1 49410U 21104C   25315.28299358  .00004299  00000+0  28804-3 0  9996",
    "TLE_LINE2": "2 49410  53.2182  40.6779 0001178  92.6242 267.4885 15.08834243220750",
    "COMMENT": "Grouped by shell and plane from TLE"
  },
  {
    "OBJECT_NAME": "STARLINK-3146",
    "OBJECT_ID": "21104G",
    "EPOCH": "2025-11-11T05:05:26.651328",
    "MEAN_MOTION": 15.08839968,
    "ECCENTRICITY": 0.0001082,
    "INCLINATION": 53.2181,
    "RA_OF_ASC_NODE": 40.9869,
    "ARG_OF_PERICENTER": 95.0749,
    "MEAN_ANOMALY": 265.0366,
    "EPHEMERIS_TYPE": 0,
    "CLASSIFICATION_TYPE": "U",
    "NORAD_CAT_ID": 49414,
    "ELEMENT_SET_NO": 999,
    "REV_AT_EPOCH": 22074,
    "BSTAR": 6.4622e-05,
    "MEAN_MOTION_DOT": 7.41e-06,
    "MEAN_MOTION_DDOT": 0.0,
    "TLE_LINE1": "1 49414U 21104G   25315.21211402  .00000741  00000+0  64622-4 0  9994",
    "TLE_LINE2": "2 49414  53.2181  40.9869 0001082  95.0749 265.0366 15.08839968220745",
    "COMMENT": "Grouped by shell and plane from TLE"
  },
  {
    "OBJECT_NAME": "STARLINK-3133",
    "OBJECT_ID": "21104J",
    "EPOCH": "2025-11-11T06:30:14.262624",
    "MEAN_MOTION": 15.08834126,
    "ECCENTRICITY": 0.0001482,
    "INCLINATION": 53.2178,
    "RA_OF_ASC_NODE": 40.7235,
    "ARG_OF_PERICENTER": 103.0548,
    "MEAN_ANOMALY": 257.061,
    "EPHEMERIS_TYPE": 0,
    "CLASSIFICATION_TYPE": "U",
    "NORAD_CAT_ID": 49416,
    "ELEMENT_SET_NO": 999,
    "REV_AT_EPOCH": 22075,
    "BSTAR": 0.00012832,
    "MEAN_MOTION_DOT": 1.755e-05,
    "MEAN_MOTION_DDOT": 0.0,
    "TLE_LINE1": "1 49416U 21104J   25315.27099841  .00001755  00000+0  12832-3 0  9994",
    "TLE_LINE2": "2 49416  53.2178  40.7235 0001482 103.0548 257.0610 15.08834126220754",
    "COMMENT": "Grouped by shell and plane from TLE"
  },
  {
    "OBJECT_NAME": "STARLINK-3111",
    "OBJECT_ID": "21104L",
    "EPOCH": "2025-11-11T06:24:55.999584",
    "MEAN_MOTION": 15.08840665,
    "ECCENTRICITY": 0.0001394,
    "INCLINATION": 53.2191,
    "RA_OF_ASC_NODE": 40.7392,
    "ARG_OF_PERICENTER": 94.2216,
    "MEAN_ANOMALY": 265.8935,
    "EPHEMERIS_TYPE": 0,
    "CLASSIFICATION_TYPE": "U",
    "NORAD_CAT_ID": 49418,
    "ELEMENT_SET_NO": 999,
    "REV_AT_EPOCH": 22074,
    "BSTAR": 1.8594000000000002e-05,
    "MEAN_MOTION_DOT": 8e-08,
    "MEAN_MOTION_DDOT": 0.0,
    "TLE_LINE1": "1 49418U 21104L   25315.26731481  .00000008  00000+0  18594-4 0  9990",
    "TLE_LINE2": "2 49418  53.2191  40.7392 0001394  94.2216 265.8935 15.08840665220741",
    "COMMENT": "Grouped by shell and plane from TLE"
  },
  {
    "OBJECT_NAME": "STARLINK-3120",
    "OBJECT_ID": "21104M",
    "EPOCH": "2025-11-11T06:09:01.620000",
    "MEAN_MOTION": 15.08842699,
    "ECCENTRICITY": 0.0001429,
    "INCLINATION": 53.2211,
    "RA_OF_ASC_NODE": 40.7899,
    "ARG_OF_PERICENTER": 77.3408,
    "MEAN_ANOMALY": 282.7744,
    "EPHEMERIS_TYPE": 0,
    "CLASSIFICATION_TYPE": "U",
    "NORAD_CAT_ID": 49419,
    "ELEMENT_SET_NO": 999,
    "REV_AT_EPOCH": 22074,
    "BSTAR": 0.00042124,
    "MEAN_MOTION_DOT": 6.423e-05,
    "MEAN_MOTION_DDOT": 0.0,
    "TLE_LINE1": "1 49419U 21104M   25315.25626875  .00006423  00000+0  42124-3 0  9992",
    "TLE_LINE2": "2 49419  53.2211  40.7899 0001429  77.3408 282.7744 15.08842699220746",
    "COMMENT": "Grouped by shell and plane from TLE"
  },
  {
    "OBJECT_NAME": "STARLINK-3110",
    "OBJECT_ID": "21104N",
    "EPOCH": "2025-11-11T06:19:40.286208",
    "MEAN_MOTION": 15.0882329,
    "ECCENTRICITY": 0.0001958,
    "INCLINATION": 53.2167,
    "RA_OF_ASC_NODE": 40.7564,
    "ARG_OF_PERICENTER": 102.3656,
    "MEAN_ANOMALY": 257.7556,
    "EPHEMERIS_TYPE": 0,
    "CLASSIFICATION_TYPE": "U",
    "NORAD_CAT_ID": 49420,
    "ELEMENT_SET_NO": 999,
    "REV_AT_EPOCH": 22074,
    "BSTAR": 0.0,
    "MEAN_MOTION_DOT": -5.232e-05,
    "MEAN_MOTION_DDOT": 0.0,
    "TLE_LINE1": "1 49420U 21104N   25315.26366072 -.00005232  00000+0 -31100-3 0  9996",
    "TLE_LINE2": "2 49420  53.2167  40.7564 0001958 102.3656 257.7556 15.08823290220747",
    "COMMENT": "Grouped by shell and plane from TLE"
  },
  {
    "OBJECT_NAME": "STARLINK-3112",
    "OBJECT_ID": "21104P",
    "EPOCH": "2025-11-11T05:31:54.545952",
    "MEAN_MOTION": 15.08849295,
    "ECCENTRICITY": 0.0001173,
    "INCLINATION": 53.2164,
    "RA_OF_ASC_NODE": 40.7105,
    "ARG_OF_PERICENTER": 76.7267,
    "MEAN_ANOMALY": 283.3856,
    "EPHEMERIS_TYPE": 0,
    "CLASSIFICATION_TYPE": "U",
    "NORAD_CAT_ID": 49421,
    "ELEMENT_SET_NO": 999,
    "REV_AT_EPOCH": 22074,
    "BSTAR": 8.4151e-05,
    "MEAN_MOTION_DOT": 1.052e-05,
    "MEAN_MOTION_DDOT": 0.0,
    "TLE_LINE1": "1 49421U 21104P   25315.23049243  .00001052  00000+0  84151-4 0  9991",
    "TLE_LINE2": "2 49421  53.2164  40.7105 0001173  76.7267 283.3856 15.08849295220748",
    "COMMENT": "Grouped by shell and plane from TLE"
  },
  {
    "OBJECT_NAME": "STARLINK-3161",
    "OBJECT_ID": "21104Q",
    "EPOCH": "2025-11-11T06:58:10.248096",
    "MEAN_MOTION": 15.08841923,
    "ECCENTRICITY": 0.000111,
    "INCLINATION": 53.2169,
    "RA_OF_ASC_NODE": 40.9527,
    "ARG_OF_PERICENTER": 86.7964,
    "MEAN_ANOMALY": 273.3155,
    "EPHEMERIS_TYPE": 0,
    "CLASSIFICATION_TYPE": "U",
    "NORAD_CAT_ID": 49422,
    "ELEMENT_SET_NO": 999,
    "REV_AT_EPOCH": 22074,
    "BSTAR": 0.00014810000000000002,
    "MEAN_MOTION_DOT": 2.07e-05,
    "MEAN_MOTION_DDOT": 0.0,
    "TLE_LINE1": "1 49422U 21104Q   25315.29039639  .00002070  00000+0  14810-3 0  9991",
    "TLE_LINE2": "2 49422  53.2169  40.9527 0001110  86.7964 273.3155 15.08841923220741",
    "COMMENT": "Grouped by shell and plane from TLE"
  },
  {
    "OBJECT_NAME": "STARLINK-3149",
    "OBJECT_ID": "21104R",
    "EPOCH": "2025-11-11T06:14:22.269408",
    "MEAN_MOTION": 15.08851154,
    "ECCENTRICITY": 0.0001325,
    "INCLINATION": 53.2187,
    "RA_OF_ASC_NODE": 40.9651,
    "ARG_OF_PERICENTER": 88.1474,
    "MEAN_ANOMALY": 271.967,
    "EPHEMERIS_TYPE": 0,
    "CLASSIFICATION_TYPE": "U",
    "NORAD_CAT_ID": 49423,
    "ELEMENT_SET_NO": 999,
    "REV_AT_EPOCH": 22074,
    "BSTAR": 0.0,
    "MEAN_MOTION_DOT": -7.9e-06,
    "MEAN_MOTION_DDOT": 0.0,
    "TLE_LINE1": "1 49423U 21104R   25315.25997997 -.00000790  00000+0 -31541-4 0  9998",
    "TLE_LINE2": "2 49423  53.2187  40.9651 0001325  88.1474 271.9670 15.08851154220743",
    "COMMENT": "Grouped by shell and plane from TLE"
  }
]